#dP2025  1 28 18  0  0.00000000      96 __u+U IGS20 EXT  IAC
## 2351 237600.00000000   900.00000000 60703 0.7500000000000
+   53   G01G02G03G04G05G06G07G08G09G10G11G12G13G14G15G16G17
+        G18G19G20G21G22G23G24G25G26G27G28G29G30G31G32R01R02
+        R03R04R05R06R07R08R09R11R12R14R15R16R17R18R19R20R21
+        R22R24  0  0  0  0  0  0  0  0  0  0  0  0  0  0  0
+          0  0  0  0  0  0  0  0  0  0  0  0  0  0  0  0  0
++         6  7  7  7  6  7  7  8  7  8  8  8  8  7  9  7  7
++         7  8  7  7  6  8  7  7  7  8  7  7  7  7  8  9  8
++         8  8  8 10  8  9  8  9  9  7  8  8  7  8  8  8  7
++         9  6  0  0  0  0  0  0  0  0  0  0  0  0  0  0  0
++         0  0  0  0  0  0  0  0  0  0  0  0  0  0  0  0  0
%c M  cc GPS ccc cccc cccc cccc cccc ccccc ccccc ccccc ccccc
%c cc cc ccc ccc cccc cccc cccc cccc ccccc ccccc ccccc ccccc
%f  0.0000000  0.000000000  0.00000000000  0.000000000000000
%f  0.0000000  0.000000000  0.00000000000  0.000000000000000
%i    0    0    0    0      0      0      0      0         0
%i    0    0    0    0      0      0      0      0         0
/* IAC                                ULTRA-RAPID PREDICTION
/* S/V CLOCKS ARE ALIGNED TO GNSS TIME                      
/* G:C1WC2W R:C1PC2P E:C1XC5X C:C2IC6I J:C1CC2S             
/* PCV:IGS20_2350 OL/AL:FES2004  NONE     YN ORB:CoN CLK:CoN
*  2025 01 29  3 30  0.00000000
PG01   3839.444802  14845.968581 -21682.551398     84.167351
PG02   2236.281023  14779.894353 -21474.049663   -256.398094
PG03  10631.086993  22391.437826  -9863.231380    654.578329
PG04   1710.736036  22438.322838  14006.745499    519.115951
PG05   1356.390057 -17744.290020  19522.054130   -200.390871
PG06  25852.852927  -6025.373688   2214.460461   -151.056826
PG07  19223.643494   8613.006159  16982.663928    -13.393407
PG08  -4942.193376  25595.130839  -3703.335213    470.175422
PG09   9364.788833  15377.708655  19415.084085    546.854799
PG10 -19418.988011  -4982.808614 -17355.036850   -296.384022
PG11  19813.081501 -11997.455682  12984.689727   -750.029157
PG12  -7050.410012 -22941.288774 -11717.097574   -567.154040
PG13  13651.802698 -22431.382360   2748.503356    694.898862
PG14  20658.651027   8133.006399 -14708.144687    588.726375
PG15   1130.332591 -26147.706429  -4580.510540    257.151817
PG16  -8353.795542  13417.405787  20914.379996    -66.292172
PG17  15876.537235   -536.961019 -20916.311195    452.151350
PG18 -20887.312381  -6774.762903  15135.584938   -655.904240
PG19  17662.975088 -10222.547668 -16890.128347    591.746499
PG20  12247.524489  -9674.531131  21567.646815    366.713811
PG21  -4902.707485  15995.485803 -19968.211698    101.745728
PG22  17531.414248    963.220514 -19453.670853    -94.602257
PG23 -20255.527779 -16339.686237  -5846.183858    413.075999
PG24   -297.903095 -16379.411347 -21329.115147   -458.668855
PG25 -17320.541170 -20312.271974  -1116.285576    495.975450
PG26 -16364.375692   5148.904597  20173.420208    -67.727758
PG27 -12472.219857  22022.036244   6955.328857    -32.375330
PG28 -25912.191225   5847.005360    -32.938807   -546.942313
PG29  -7841.928103 -15962.783737  19640.718160   -542.824037
PG30  25769.182385    263.156415   7147.032263   -228.592177
PG31 -23306.869331   9955.296972   8281.771516   -216.801544
PG32 -16426.395793   6262.086876 -19614.204650   -532.620190
PR01  -4408.321019  22255.329610 -11664.844139    112.847357
PR02   2733.287091  24743.577575   5444.516303    -38.005071
PR03   9488.403412  13032.860317  19797.401041    115.830624
PR04  10424.362371  -5077.863976  22755.659833    274.692984
PR05   6170.122615 -20667.077441  13654.731061    144.517041
PR06 -10602.515830   3325.002254 -22937.771969   -131.332715
PR07  -9480.451520 -12906.244445 -19828.511266     99.746807
PR08 -10419.468932   5447.659384 -22566.845208     -6.294590
PR09 -10986.829571 -15151.278584 -17274.639703    234.817218
PR11 -21408.118534  -4407.815255  13140.047969     -4.503756
PR12  -7166.263318   8639.072233  22922.150998     50.150988
PR14  21961.330498  12826.684886   2096.404211     27.664383
PR15  20677.965149   3260.130044 -14569.643753     71.721969
PR16   7231.386008  -8425.874627 -22964.628441     32.839858
PR17  15072.949741   1955.816009 -20462.681626    161.555990
PR18  22546.338378  -8780.755508  -8143.175585    184.292557
PR19  20174.249278 -14168.923206   6557.135438   -307.205360
PR20   2783.787640 -12655.845296  21992.724411   -125.117675
PR21 -14040.219959  -2925.635077  21103.473063   -172.147741
PR22 -22890.675406   8872.740298   6926.637791    -58.183715
PR24  -1413.327676  12954.061651 -21910.180783    -90.150586
*  2025 01 29  3 45  0.00000000
PG01   1381.608158  15211.367111 -21724.229502     84.191762
PG02   -193.387060  15503.594580 -21048.369231   -256.389673
PG03   9686.398949  21571.379446 -12374.772898    654.584304
PG04   1038.105066  23761.778851  11681.248311    519.121084
PG05   3086.057010 -16178.387892  20649.095586   -200.391918
PG06  25963.771681  -5881.661059   -687.571939   -151.080139
PG07  17372.434860   9169.911396  18619.117483    -13.393443
PG08  -5316.635350  25754.574211   -859.031748    470.181958
PG09   8653.443254  17419.267701  17967.897979    546.867733
PG10 -20625.837770  -6453.021705 -15424.935551   -296.398001
PG11  21171.551605 -12034.836578  10569.712086   -750.027669
PG12  -5998.851314 -21953.488308 -14021.814918   -567.155972
PG13  13648.251229 -21872.902658   5590.725804    694.899867
PG14  21532.181518   9445.680102 -12537.994542    588.732627
PG15   1493.618196 -26410.849045  -1793.442873    257.155743
PG16  -9942.901144  11481.611516  21398.456300    -66.283799
PG17  15035.123761   1823.133453 -21430.318203    452.135048
PG18 -19126.193213  -7280.402677  17085.883837   -655.902615
PG19  17020.890524  -8301.342379 -18573.197543    591.750499
PG20  14152.430771  -8180.940756  20999.337748    366.713553
PG21  -7156.446601  16563.366639 -18709.789296    101.746163
PG22  18777.392428   2817.663322 -18061.017508    -94.603821
PG23 -20487.382581 -16823.668967  -3020.350285    413.082653
PG24   1929.948994 -17041.587950 -20665.328704   -458.664831
PG25 -16957.527389 -20319.984560  -3913.007803    495.974872
PG26 -17986.926901   3530.821538  19158.524907    -67.742202
PG27 -12456.075651  20985.396304   9611.451372    -32.374784
PG28 -25815.890429   5560.818433  -2883.567618   -546.950468
PG29  -6932.026039 -17944.007476  18213.940343   -542.820923
PG30  24914.468599    747.056555   9711.229374   -228.584451
PG31 -24155.167221   9887.439959   5609.087152   -216.800729
PG32 -15853.715080   3974.883431 -20660.566605   -532.613538
PR01  -4413.854760  20646.295763 -14317.620791    112.848530
PR02   2923.139405  25206.168345   2259.092771    -38.004726
PR03   9705.649570  15345.363985  17937.736840    115.831314
PR04  10515.498897  -2252.233679  23164.290338    274.694554
PR05   6095.569530 -18827.467047  16125.360300    144.517318
PR06 -10755.970325    481.187745 -23099.984262   -131.332433
PR07  -9697.598644 -15240.460925 -17990.115161     99.747378
PR08 -10541.758950   2619.937912 -23013.069745     -6.294516
PR09  -8963.035776 -14158.031876 -19185.806815    234.819137
PR11 -22762.934235  -4942.199371  10380.970196     -4.506616
PR12  -9672.161396   7404.401952  22429.286692     50.151330
PR14  21605.652475  12524.423568   5250.212295     27.664375
PR15  22188.168659   3903.006298 -11958.560405     71.721608
PR16   9750.548350  -7197.964633 -22447.942706     32.840087
PR17  12835.052044   3304.735092 -21775.459282    161.558731
PR18  21438.706700  -8309.606985 -11085.337805    184.294150
PR19  20599.293802 -14660.237880   3388.463692   -307.206662
PR20   5022.134950 -14049.334721  20715.266205   -125.118087
PR21 -11736.902966  -4290.097766  22244.394738   -172.150651
PR22 -21931.953392   8458.883094   9915.467279    -58.185299
PR24  -3595.248722  14431.009256 -20706.770070    -90.152109
EOF
